[{"OBJECT_NAME":"STARLINK-5086","OBJECT_ID":"2022-177AN","EPOCH":"2026-03-09T22:00:01.999584","MEAN_MOTION":15.09023797,"ECCENTRICITY":0.00024157,"INCLINATION":43.0003,"RA_OF_ASC_NODE":118.8163,"ARG_OF_PERICENTER":260.4357,"MEAN_ANOMALY":63.0011,"EPHEMERIS_TYPE":0,"CLASSIFICATION_TYPE":"U","NORAD_CAT_ID":54856,"ELEMENT_SET_NO":999,"REV_AT_EPOCH":577,"BSTAR":0.0015660098,"MEAN_MOTION_DOT":0.00025074,"MEAN_MOTION_DDOT":0},{"OBJECT_NAME":"COSMOS 2251 DEB","OBJECT_ID":"1993-036EU","EPOCH":"2026-03-09T14:44:02.306976","MEAN_MOTION":15.10275873,"ECCENTRICITY":0.0002082,"INCLINATION":74.0027,"RA_OF_ASC_NODE":262.4484,"ARG_OF_PERICENTER":258.1067,"MEAN_ANOMALY":101.9891,"EPHEMERIS_TYPE":0,"CLASSIFICATION_TYPE":"U","NORAD_CAT_ID":33939,"ELEMENT_SET_NO":999,"REV_AT_EPOCH":90059,"BSTAR":0.0040153,"MEAN_MOTION_DOT":0.00066338,"MEAN_MOTION_DDOT":0}]
